YAM-7                   
1 60504U 24149AN  26068.71799904  .00009009  00000+0  30984-3 0  9997
2 60504  97.3828 149.4631 0001973 296.5121  63.5918 15.30304554 86835
STARLINK-36110          
1 66945U 25286W   26068.24281598  .00011206  00000+0  39007-3 0  9995
2 66945  53.1609   0.8560 0001106  73.5701 286.5422 15.30184781 15346
